{
  "type": "FeatureCollection",
  "features": [
    {
      "type": "Feature",
      "properties": {
        "norad_id": 38833,
        "name": "GPS BIIF-3  (PRN 24)",
        "group": "gps-ops",
        "lat": 53.488212865711176,
        "lon": -115.34418799412131,
        "alt_km": 19761.913886138696,
        "timestamp": "2025-12-10T11:33:53.644307+00:00",
        "meta_object_name": "GPS BIIF-3  (PRN 24)",
        "meta_object_id": "2012-053A",
        "meta_epoch": "2025-12-09T08:40:03.793728",
        "meta_mean_motion": 2.00564926,
        "meta_eccentricity": 0.01757344,
        "meta_inclination": 53.5568,
        "meta_ra_of_asc_node": 151.3769,
        "meta_arg_of_pericenter": 63.947,
        "meta_mean_anomaly": 297.8481,
        "meta_ephemeris_type": 0,
        "meta_classification_type": "U",
        "meta_norad_cat_id": 38833,
        "meta_element_set_no": 999,
        "meta_rev_at_epoch": 9563,
        "meta_bstar": 0,
        "meta_mean_motion_dot": 6.3e-07,
        "meta_mean_motion_ddot": 0,
        "tle_line1": "1 38833U 12053A   25343.36115502  .00000063  00000+0  00000+0 0  9993",
        "tle_line2": "2 38833  53.5568 151.3769 0175734  63.9470 297.8481  2.00564926 95633"
      },
      "geometry": {
        "type": "Point",
        "coordinates": [
          -115.34418799412131,
          53.488212865711176
        ]
      }
    },
    {
      "type": "Feature",
      "properties": {
        "norad_id": 39166,
        "name": "GPS BIIF-4  (PRN 27)",
        "group": "gps-ops",
        "lat": -7.867384578197688,
        "lon": 102.26842230702536,
        "alt_km": 20465.46714721599,
        "timestamp": "2025-12-10T11:33:53.644318+00:00",
        "meta_object_name": "GPS BIIF-4  (PRN 27)",
        "meta_object_id": "2013-023A",
        "meta_epoch": "2025-12-09T05:24:11.844576",
        "meta_mean_motion": 2.00565099,
        "meta_eccentricity": 0.01376828,
        "meta_inclination": 54.6551,
        "meta_ra_of_asc_node": 276.7112,
        "meta_arg_of_pericenter": 48.5762,
        "meta_mean_anomaly": 312.6137,
        "meta_ephemeris_type": 0,
        "meta_classification_type": "U",
        "meta_norad_cat_id": 39166,
        "meta_element_set_no": 999,
        "meta_rev_at_epoch": 9207,
        "meta_bstar": 0,
        "meta_mean_motion_dot": -4.9e-07,
        "meta_mean_motion_ddot": 0,
        "tle_line1": "1 39166U 13023A   25343.22513709 -.00000049  00000+0  00000+0 0  9992",
        "tle_line2": "2 39166  54.6551 276.7112 0137682  48.5762 312.6137  2.00565099 92075"
      },
      "geometry": {
        "type": "Point",
        "coordinates": [
          102.26842230702536,
          -7.867384578197688
        ]
      }
    },
    {
      "type": "Feature",
      "properties": {
        "norad_id": 39533,
        "name": "GPS BIIF-5  (PRN 30)",
        "group": "gps-ops",
        "lat": -8.475039188740253,
        "lon": -16.684417450298888,
        "alt_km": 20012.007872738624,
        "timestamp": "2025-12-10T11:33:53.644329+00:00",
        "meta_object_name": "GPS BIIF-5  (PRN 30)",
        "meta_object_id": "2014-008A",
        "meta_epoch": "2025-12-09T17:13:43.084992",
        "meta_mean_motion": 2.00574232,
        "meta_eccentricity": 0.0079131,
        "meta_inclination": 53.6308,
        "meta_ra_of_asc_node": 157.0479,
        "meta_arg_of_pericenter": 226.4542,
        "meta_mean_anomaly": 132.8924,
        "meta_ephemeris_type": 0,
        "meta_classification_type": "U",
        "meta_norad_cat_id": 39533,
        "meta_element_set_no": 999,
        "meta_rev_at_epoch": 8588,
        "meta_bstar": 0,
        "meta_mean_motion_dot": 6.7e-07,
        "meta_mean_motion_ddot": 0,
        "tle_line1": "1 39533U 14008A   25343.71785978  .00000067  00000+0  00000+0 0  9996",
        "tle_line2": "2 39533  53.6308 157.0479 0079131 226.4542 132.8924  2.00574232 85882"
      },
      "geometry": {
        "type": "Point",
        "coordinates": [
          -16.684417450298888,
          -8.475039188740253
        ]
      }
    },
    {
      "type": "Feature",
      "properties": {
        "norad_id": 39741,
        "name": "GPS BIIF-6  (PRN 06)",
        "group": "gps-ops",
        "lat": -10.665718800663345,
        "lon": -28.283188728276226,
        "alt_km": 20092.926453735647,
        "timestamp": "2025-12-10T11:33:53.644340+00:00",
        "meta_object_name": "GPS BIIF-6  (PRN 06)",
        "meta_object_id": "2014-026A",
        "meta_epoch": "2025-12-10T00:01:18.986880",
        "meta_mean_motion": 2.00561492,
        "meta_eccentricity": 0.0039114,
        "meta_inclination": 56.5847,
        "meta_ra_of_asc_node": 338.8829,
        "meta_arg_of_pericenter": 318.5217,
        "meta_mean_anomaly": 41.1927,
        "meta_ephemeris_type": 0,
        "meta_classification_type": "U",
        "meta_norad_cat_id": 39741,
        "meta_element_set_no": 999,
        "meta_rev_at_epoch": 8474,
        "meta_bstar": 0,
        "meta_mean_motion_dot": -8.4e-07,
        "meta_mean_motion_ddot": 0,
        "tle_line1": "1 39741U 14026A   25344.00091420 -.00000084  00000+0  00000+0 0  9992",
        "tle_line2": "2 39741  56.5847 338.8829 0039114 318.5217  41.1927  2.00561492 84743"
      },
      "geometry": {
        "type": "Point",
        "coordinates": [
          -28.283188728276226,
          -10.665718800663345
        ]
      }
    },
    {
      "type": "Feature",
      "properties": {
        "norad_id": 40105,
        "name": "GPS BIIF-7  (PRN 09)",
        "group": "gps-ops",
        "lat": -52.72545736737905,
        "lon": 30.2273326308254,
        "alt_km": 20270.99402649102,
        "timestamp": "2025-12-10T11:33:53.644351+00:00",
        "meta_object_name": "GPS BIIF-7  (PRN 09)",
        "meta_object_id": "2014-045A",
        "meta_epoch": "2025-12-09T14:09:41.937408",
        "meta_mean_motion": 2.00572274,
        "meta_eccentricity": 0.0032763,
        "meta_inclination": 55.2273,
        "meta_ra_of_asc_node": 96.0246,
        "meta_arg_of_pericenter": 119.7913,
        "meta_mean_anomaly": 240.5219,
        "meta_ephemeris_type": 0,
        "meta_classification_type": "U",
        "meta_norad_cat_id": 40105,
        "meta_element_set_no": 999,
        "meta_rev_at_epoch": 8227,
        "meta_bstar": 0,
        "meta_mean_motion_dot": 2e-08,
        "meta_mean_motion_ddot": 0,
        "tle_line1": "1 40105U 14045A   25343.59006872  .00000002  00000+0  00000+0 0  9998",
        "tle_line2": "2 40105  55.2273  96.0246 0032763 119.7913 240.5219  2.00572274 82276"
      },
      "geometry": {
        "type": "Point",
        "coordinates": [
          30.2273326308254,
          -52.72545736737905
        ]
      }
    },
    {
      "type": "Feature",
      "properties": {
        "norad_id": 40294,
        "name": "GPS BIIF-8  (PRN 03)",
        "group": "gps-ops",
        "lat": 10.273931722859878,
        "lon": 45.04543404185227,
        "alt_km": 20092.093932718504,
        "timestamp": "2025-12-10T11:33:53.644362+00:00",
        "meta_object_name": "GPS BIIF-8  (PRN 03)",
        "meta_object_id": "2014-068A",
        "meta_epoch": "2025-12-09T11:13:35.595840",
        "meta_mean_motion": 2.00564545,
        "meta_eccentricity": 0.00607875,
        "meta_inclination": 56.8554,
        "meta_ra_of_asc_node": 38.2726,
        "meta_arg_of_pericenter": 69.25,
        "meta_mean_anomaly": 291.455,
        "meta_ephemeris_type": 0,
        "meta_classification_type": "U",
        "meta_norad_cat_id": 40294,
        "meta_element_set_no": 999,
        "meta_rev_at_epoch": 8140,
        "meta_bstar": 0,
        "meta_mean_motion_dot": -8.3e-07,
        "meta_mean_motion_ddot": 0,
        "tle_line1": "1 40294U 14068A   25343.46777310 -.00000083  00000+0  00000+0 0  9990",
        "tle_line2": "2 40294  56.8554  38.2726 0060787  69.2500 291.4550  2.00564545 81402"
      },
      "geometry": {
        "type": "Point",
        "coordinates": [
          45.04543404185227,
          10.273931722859878
        ]
      }
    },
    {
      "type": "Feature",
      "properties": {
        "norad_id": 40534,
        "name": "GPS BIIF-9  (PRN 26)",
        "group": "gps-ops",
        "lat": -52.43601993166279,
        "lon": 135.34332531686005,
        "alt_km": 20329.332247935534,
        "timestamp": "2025-12-10T11:33:53.644373+00:00",
        "meta_object_name": "GPS BIIF-9  (PRN 26)",
        "meta_object_id": "2015-013A",
        "meta_epoch": "2025-12-09T02:22:50.145600",
        "meta_mean_motion": 2.00562736,
        "meta_eccentricity": 0.0106899,
        "meta_inclination": 53.1983,
        "meta_ra_of_asc_node": 212.041,
        "meta_arg_of_pericenter": 38.3936,
        "meta_mean_anomaly": 322.4441,
        "meta_ephemeris_type": 0,
        "meta_classification_type": "U",
        "meta_norad_cat_id": 40534,
        "meta_element_set_no": 999,
        "meta_rev_at_epoch": 7801,
        "meta_bstar": 0,
        "meta_mean_motion_dot": 1.8e-07,
        "meta_mean_motion_ddot": 0,
        "tle_line1": "1 40534U 15013A   25343.09919150  .00000018  00000+0  00000+0 0  9994",
        "tle_line2": "2 40534  53.1983 212.0410 0106899  38.3936 322.4441  2.00562736 78019"
      },
      "geometry": {
        "type": "Point",
        "coordinates": [
          135.34332531686005,
          -52.43601993166279
        ]
      }
    }
  ]
}